NAVSTAR 48 (USA 151)    
1 26407U 00040A   26195.72020093  .00000059  00000+0  00000+0 0  9991
2 26407  54.8485 214.0685 0120522 302.7313  60.8072  2.00557829190508
NAVSTAR 51 (USA 166)    
1 27663U 03005A   26196.04064617  .00000055  00000+0  00000+0 0  9992
2 27663  54.8790 213.8621 0148261  53.1643 317.9450  2.00559020171872
NAVSTAR 54 (USA 177)    
1 28190U 04009A   26195.36755706 -.00000010  00000+0  00000+0 0  9995
2 28190  54.8072 274.5880 0117158 174.3050 223.3706  2.00553701163494
NAVSTAR 56 (USA 180)    
1 28474U 04045A   26195.28841272 -.00000090  00000+0  00000+0 0  9993
2 28474  55.1188 323.8048 0170168 317.0371  88.5743  2.00556980158978
NAVSTAR 57 (USA 183)    
1 28874U 05038A   26195.37479356 -.00000005  00000+0  00000+0 0  9996
2 28874  54.8561 272.0791 0128202 296.4051 136.1669  2.00563728152384
INMARSAT 4-F2           
1 28899U 05044A   26196.01510352 -.00000272  00000+0  00000+0 0  9990
2 28899   5.1302  43.6604 0002721  61.4196 336.7187  1.00270944 75803
NAVSTAR 58 (USA 190)    
1 29486U 06042A   26195.92965162  .00000010  00000+0  00000+0 0  9993
2 29486  54.7129 150.2375 0107182  55.1467 317.0028  2.00568212144959
NAVSTAR 59 (USA 192)    
1 29601U 06052A   26195.84081537  .00000057  00000+0  00000+0 0  9990
2 29601  54.9323 212.9099 0084755  90.9976 270.0185  2.00559637143960
NAVSTAR 60 (USA 196)    
1 32260U 07047A   26195.14929981 -.00000034  00000+0  00000+0 0  9993
2 32260  54.1150  78.9543 0167754  87.9648 274.0127  2.00553919137355
COSMOS 2433 [GLONASS-M] 
1 32275U 07052A   26195.60182829 -.00000063  00000+0  00000+0 0  9990
2 32275  65.5599 315.0115 0003477 203.3986 156.5929  2.13104150145642
COSMOS 2432 [GLONASS-M] 
1 32276U 07052B   26194.72487859 -.00000064  00000+0  00000+0 0  9995
2 32276  65.5765 315.1695 0007405 322.3764  28.6295  2.13103098145648
NAVSTAR 61 (USA 199)    
1 32384U 07062A   26194.44170877 -.00000002  00000+0  00000+0 0  9996
2 32384  55.0109 273.0962 0036045 167.3754 169.6583  2.00561466136033
COSMOS 2434 [GLONASS-M] 
1 32393U 07065A   26196.02182712  .00000057  00000+0  00000+0 0  9995
2 32393  64.3201 190.9768 0001274 327.5882 244.3125  2.13101166144367
COSMOS 2436 [GLONASS-M] 
1 32395U 07065C   26196.18930753  .00000056  00000+0  00000+0 0  9999
2 32395  64.3286 191.0436 0017314 353.5207 119.0574  2.13099957144324
NAVSTAR 62 (USA 201)    
1 32711U 08012A   26195.55660444  .00000008  00000+0  00000+0 0  9998
2 32711  54.5000 148.8314 0211667 248.1441 109.5515  2.00573083134301
NAVSTAR 64 (USA 206)    
1 35752U 09043A   26195.56009199 -.00000068  00000+0  00000+0 0  9993
2 35752  56.2274  26.3776 0053730  84.3590 285.8102  2.00552733123917
COSMOS 2456 [GLONASS-M] 
1 36111U 09070A   26196.20150741 -.00000012  00000+0  00000+0 0  9994
2 36111  65.0276  70.0172 0003618 341.0694 166.9806  2.13103616129025
COSMOS 2457 [GLONASS-M] 
1 36112U 09070B   26194.19579927 -.00000012  00000+0  00000+0 0  9992
2 36112  65.0120  69.9289 0004075 121.6619  54.8410  2.13101172128982
COSMOS 2460 [GLONASS-M] 
1 36402U 10007C   26195.40307670 -.00000062  00000+0  00000+0 0  9990
2 36402  65.4033 313.5463 0001833 143.6465 240.9882  2.13101627127317
NAVSTAR 65 (USA 213)    
1 36585U 10022A   26195.47366416  .00000060  00000+0  00000+0 0  9996
2 36585  54.2685 207.4628 0126703  66.1537   1.4490  2.00563694118143
BEIDOU-2 IGSO-1         
1 36828U 10036A   26195.91730701 -.00000122  00000+0  00000+0 0  9992
2 36828  54.3063 162.7092 0059022 225.2803 342.1032  1.00264343 58378
BEIDOU-2 G4             
1 37210U 10057A   26195.80464421 -.00000124  00000+0  00000+0 0  9994
2 37210   3.7129  68.7668 0005743 184.4843 129.0009  1.00269752 57565
BEIDOU-2 IGSO-2         
1 37256U 10068A   26195.65157983 -.00000189  00000+0  00000+0 0  9992
2 37256  47.4976 271.4891 0056995 213.8254 150.0718  1.00273103 57071
BEIDOU-2 IGSO-3         
1 37384U 11013A   26195.95750385 -.00000165  00000+0  00000+0 0  9997
2 37384  62.4464  39.8890 0035472 183.4321 160.6904  1.00260569 55930
GSAT-8                  
1 37605U 11022A   26196.14028130  .00000073  00000+0  00000+0 0  9998
2 37605   2.2013  81.4787 0002773 159.6023 157.5003  1.00276014 53494
BEIDOU-2 IGSO-4         
1 37763U 11038A   26193.91136250 -.00000017  00000+0  00000+0 0  9994
2 37763  54.6038 165.4445 0160342 231.4539 316.2369  1.00279714 54905
GSAT0101 (GALILEO-PFM)  
1 37846U 11060A   26195.41786958 -.00000098  00000+0  00000+0 0  9993
2 37846  56.9846 341.0235 0002269  61.6458 298.3624  1.70475546 91581
GSAT0102 (GALILEO-FM2)  
1 37847U 11060B   26195.63094689 -.00000098  00000+0  00000+0 0  9991
2 37847  56.9853 341.0182 0002125   7.9105 168.5153  1.70475832 91598
COSMOS 2476 [GLONASS-M] 
1 37867U 11064A   26194.44728024 -.00000011  00000+0  00000+0 0  9997
2 37867  65.2845  71.9855 0022141 236.0231 274.5611  2.13103772114328
COSMOS 2477 [GLONASS-M] 
1 37868U 11064B   26196.14134986 -.00000010  00000+0  00000+0 0  9994
2 37868  65.2921  72.0080 0019141 236.8783 313.6009  2.13102925114350
COSMOS 2475 [GLONASS-M] 
1 37869U 11064C   26195.24943597 -.00000009  00000+0  00000+0 0  9999
2 37869  65.2982  72.0599 0024831 251.2133 290.0274  2.13101779114342
